sat11060
1 11060U 78096A   20046.86650124 -.00000021  00000-0  10888-4 0  9995
2 11060  98.7576 106.5049 0011590  76.1659 284.0805 14.18257919350751
